{
  "norad_id": 65585,
  "name": "PRAETORIAN SDA_601",
  "history": [
    {
      "epoch": "2026-03-28T16:50:20.293728Z",
      "apogee_km": 956.349045289845,
      "perigee_km": 946.7430558710766,
      "latitude_deg": -2.1417142756694813e-06,
      "longitude_deg": 6.741354680688215,
      "height_km": 952.4096131494132,
      "semi_major_axis_km": 7329.683050580461,
      "eccentricity": 0.00065528,
      "inclination_deg": 81.2998,
      "raan_deg": 85.4442,
      "arg_perigee_deg": 65.5339,
      "mean_anomaly_deg": 294.65,
      "mean_motion_rev_day": 13.83486638
    },
    {
      "epoch": "2026-03-29T01:31:02.708256Z",
      "apogee_km": 956.3036649825444,
      "perigee_km": 946.7824106134449,
      "latitude_deg": -4.468644246850933e-05,
      "longitude_deg": -124.1262902947386,
      "height_km": 952.3618607447121,
      "semi_major_axis_km": 7329.680037797994,
      "eccentricity": 0.0006495,
      "inclination_deg": 81.2995,
      "raan_deg": 85.1097,
      "arg_perigee_deg": 64.7048,
      "mean_anomaly_deg": 295.478,
      "mean_motion_rev_day": 13.83487491
    }
  ]
}